[{"OBJECT_NAME":"STARLINK-5763","OBJECT_ID":"2023-065C","EPOCH":"2026-03-09T22:00:01.999584","MEAN_MOTION":15.05557996,"ECCENTRICITY":0.00020078,"INCLINATION":42.9998,"RA_OF_ASC_NODE":209.382,"ARG_OF_PERICENTER":283.9887,"MEAN_ANOMALY":150.795,"EPHEMERIS_TYPE":0,"CLASSIFICATION_TYPE":"U","NORAD_CAT_ID":56505,"ELEMENT_SET_NO":999,"REV_AT_EPOCH":578,"BSTAR":0.0046083415,"MEAN_MOTION_DOT":0.00067934,"MEAN_MOTION_DDOT":0},{"OBJECT_NAME":"STARLING 2","OBJECT_ID":"2023-100B","EPOCH":"2026-03-09T22:50:31.935264","MEAN_MOTION":15.06172687,"ECCENTRICITY":0.00065493,"INCLINATION":99.5117,"RA_OF_ASC_NODE":63.5956,"ARG_OF_PERICENTER":83.1191,"MEAN_ANOMALY":277.0775,"EPHEMERIS_TYPE":0,"CLASSIFICATION_TYPE":"U","NORAD_CAT_ID":57387,"ELEMENT_SET_NO":999,"REV_AT_EPOCH":14496,"BSTAR":0.00017665492,"MEAN_MOTION_DOT":2.498e-5,"MEAN_MOTION_DDOT":0}]
